TDRS 3                  
1 19548U 88091B   16137.21446841 -.00000311  00000-0  00000+0 0  9996
2 19548  14.8003  12.3645 0038113 309.4958 287.4039  1.00278061 88420
HST                     
1 20580U 90037B   16139.20376795  .00001055  00000-0  54964-4 0  9996
2 20580  28.4696  96.7178 0002596 242.9788 239.5044 15.08356589230587
TDRS 5                  
1 21639U 91054B   16138.40665302  .00000083  00000-0  00000+0 0  9995
2 21639  14.0791  25.7122 0025074 330.9742 218.0153  1.00283958 90779
TDRS 6                  
1 22314U 93003B   16138.46220389 -.00000298  00000-0  00000+0 0  9999
2 22314  13.5746  28.5798 0004364 305.2836  22.3335  1.00270612 85441
TDRS 7                  
1 23613U 95035B   16138.78051730 -.00000204  00000-0  00000+0 0  9993
2 23613  14.7808  19.4111 0024557  25.5070 196.5594  1.00267419 76220
ISS (ZARYA)             
1 25544U 98067A   16139.19439067  .00006255  00000-0  99806-4 0  9993
2 25544  51.6432 207.6539 0001903 111.0695 298.8800 15.54638660   325
LANDSAT 7               
1 25682U 99020A   16138.72653020  .00000301  00000-0  76967-4 0  9990
2 25682  98.2137 209.5373 0001356  91.4251 268.7087 14.57113461909000
TERRA                   
1 25994U 99068A   16139.14950199  .00000238  00000-0  62845-4 0  9991
2 25994  98.2108 213.8674 0000811  89.8196 270.3131 14.57099020873148
TDRS 8                  
1 26388U 00034A   16138.26295101 -.00000235  00000-0  00000+0 0  9999
2 26388   6.8158  59.3997 0001196 172.0353 187.8128  1.00271937 58241
EO-1                    
1 26619U 00075A   16138.68336043  .00000272  00000-0  60187-4 0  9995
2 26619  97.8829 179.6377 0007895 283.1913  76.8418 14.64255410825657
TIMED                   
1 26998U 01055B   16138.16486940  .00000422  00000-0  50404-4 0  9997
2 26998  74.0726  23.0497 0001301 210.3979 149.7127 14.87713143782583
TDRS 9                  
1 27389U 02011A   16138.32416804 -.00000104  00000-0  00000+0 0  9995
2 27389   4.4399  84.5733 0017165 241.9164  13.7292  1.00271695 53516
AQUA                    
1 27424U 02022A   16138.50823914  .00000303  00000-0  77307-4 0  9990
2 27424  98.1977  79.5298 0000647  80.3679  57.2143 14.57144945746656
TDRS 10                 
1 27566U 02055A   16137.99765142  .00000073  00000-0  00000+0 0  9998
2 27566   4.3437  60.1982 0006949 236.5443 123.1702  1.00275714 49297
SORCE                   
1 27651U 03004A   16138.05765034  .00000662  00000-0  84318-4 0  9999
2 27651  39.9967   8.7253 0023445 329.0430  30.8976 14.88345950721741
AURA                    
1 28376U 04026A   16138.48733855  .00000302  00000-0  77147-4 0  9995
2 28376  98.1971  81.6730 0001229  86.4184 273.7155 14.57120697629697
SWIFT                   
1 28485U 04047A   16136.94608918  .00001736  00000-0  93011-4 0  9999
2 28485  20.5576  30.5702 0011452 262.1689  97.7444 15.03113268628324
THEMIS A                
1 30580U 07004A   16139.90810989 -.00000429  00000-0  00000+0 0  9996
2 30580  10.6909 284.9600 8415749 352.8218 359.5401  0.87729841 33604
THEMIS D                
1 30797U 07004D   16137.85036635 -.00000263  00000-0  00000+0 0  9992
2 30797   4.6467 271.0372 8275909   9.8010   0.5122  0.99959148 33511
THEMIS E                
1 30798U 07004E   16139.28997703 -.00000456  00000-0 -75008-1 0  9991
2 30798   6.2048 284.4430 8265668 357.6870 359.5708  1.00248149 33676
AIM                     
1 31304U 07015A   16139.15185280  .00002606  00000-0  16048-3 0  9990
2 31304  97.9652 294.6080 0006502  51.7727 308.4086 15.10932963495266
FGRST (GLAST)           
1 33053U 08029A   16139.15389668  .00000930  00000-0  37493-4 0  9991
2 33053  25.5815 171.4717 0012923  35.2261 324.9126 15.10591636437510
WISE                    
1 36119U 09071A   16139.08061047  .00002712  00000-0  10491-3 0  9993
2 36119  97.4824 160.1886 0000965 266.8254  93.2874 15.27086007355955
TDRS 11                 
1 39070U 13004A   16137.73656072  .00000073  00000-0  00000+0 0  9990
2 39070   5.8818 329.2353 0008316 287.8413  71.9327  1.00266082 12051
TDRS 12                 
1 39504U 14004A   16137.39689257 -.00000291  00000-0  00000+0 0  9999
2 39504   6.3753 336.7104 0001543 179.0232 180.8499  1.00271757  8511
GPM-CORE                
1 39574U 14009C   16137.53873908  .00008501  00000-0  12479-3 0  9993
2 39574  65.0112 188.6512 0011566 288.0863  71.9023 15.56088899125829
MMS 1                   
1 40482U 15011A   16137.63541667 -.00000657  00000-0  00000-0 0  9991
2 40482  28.6776 342.9132 8155621  98.0808 237.6733  1.00484343  4340
MMS 2                   
1 40483U 15011B   16137.63888889 -.00000658  00000-0  00000-0 0  9993
2 40483  28.6776 342.8924 8163152  98.1016 238.9621  1.00484360  4348
MMS 3                   
1 40484U 15011C   16137.62500000 -.00000657  00000-0  00000-0 0  9998
2 40484  28.6657 342.9099 8158087  98.0363 234.0495  1.00484335  4153
MMS 4                   
1 40485U 15011D   16135.95446947 -.00000618  00000-0  00000+0 0  9998
2 40485  28.7023 343.0753 8159069  97.7611 349.7474  1.00483130  4304
